start=new Date('2023-05-22T00:00:00.000Z').valueOf();
sats=[{"EPHEMERIS_TYPE":"0","OBJECT_ID":"2023-046A","SEMIMAJOR_AXIS":"6931.230","ELEMENT_SET_NO":"999","CENTER_NAME":"EARTH","TLE_LINE2":"2 56093  43.0023 317.3738 0001330 267.7906  92.2785 15.04483001  9348","COUNTRY_CODE":"US","BSTAR":"-0.00001006000000","PERIOD":"95.714","CLASSIFICATION_TYPE":"U","OBJECT_TYPE":"PAYLOAD","MEAN_MOTION_DDOT":"0.0000000000000","APOAPSIS":"554.017","EPOCH":"2023-05-21T20:27:59.682240","RCS_SIZE":"LARGE","OBJECT_NAME":"STARLINK-6102","LAUNCH_DATE":"2023-03-29","MEAN_MOTION_DOT":"-0.00000351","FILE":"3914061","DECAY_DATE":null,"GP_ID":"232286804","NORAD_CAT_ID":"56093","ARG_OF_PERICENTER":"267.7906","TIME_SYSTEM":"UTC","ECCENTRICITY":"0.00013300","SITE":"AFETR","RA_OF_ASC_NODE":"317.3738","INCLINATION":"43.0023","PERIAPSIS":"552.173","TLE_LINE1":"1 56093U 23046A   23141.85277410 -.00000351  00000-0 -10060-4 0  9995","MEAN_MOTION":"15.04483001","MEAN_ANOMALY":"92.2785","MEAN_ELEMENT_THEORY":"SGP4","REF_FRAME":"TEME","REV_AT_EPOCH":"934"},{"LAUNCH_DATE":"2023-03-29","EPOCH":"2023-05-21T20:12:21.456000","RCS_SIZE":"LARGE","OBJECT_NAME":"STARLINK-6109","PERIOD":"95.715","CLASSIFICATION_TYPE":"U","OBJECT_TYPE":"PAYLOAD","APOAPSIS":"553.918","MEAN_MOTION_DDOT":"0.0000000000000","TLE_LINE2":"2 56094  43.0013 317.2888 0001144 271.8494  88.2218 15.04473367  8196","COUNTRY_CODE":"US","BSTAR":"-0.00008503100000","ELEMENT_SET_NO":"999","CENTER_NAME":"EARTH","EPHEMERIS_TYPE":"0","OBJECT_ID":"2023-046B","SEMIMAJOR_AXIS":"6931.260","REF_FRAME":"TEME","REV_AT_EPOCH":"819","TLE_LINE1":"1 56094U 23046B   23141.84191500 -.00001417  00000-0 -85031-4 0  9994","MEAN_MOTION":"15.04473367","MEAN_ANOMALY":"88.2218","MEAN_ELEMENT_THEORY":"SGP4","INCLINATION":"43.0013","PERIAPSIS":"552.332","ECCENTRICITY":"0.00011440","SITE":"AFETR","RA_OF_ASC_NODE":"317.2888","ARG_OF_PERICENTER":"271.8494","TIME_SYSTEM":"UTC","GP_ID":"232286053","NORAD_CAT_ID":"56094","FILE":"3914061","DECAY_DATE":null,"MEAN_MOTION_DOT":"-0.00001417"},{"EPHEMERIS_TYPE":"0","OBJECT_ID":"2023-046C","SEMIMAJOR_AXIS":"6931.236","ELEMENT_SET_NO":"999","CENTER_NAME":"EARTH","COUNTRY_CODE":"US","TLE_LINE2":"2 56095  43.0019 317.3442 0001097 265.9849  94.0868 15.04481085  8197","BSTAR":"-0.00009420300000","PERIOD":"95.714","CLASSIFICATION_TYPE":"U","OBJECT_TYPE":"PAYLOAD","MEAN_MOTION_DDOT":"0.0000000000000","APOAPSIS":"553.861","EPOCH":"2023-05-21T20:22:33.828096","RCS_SIZE":"LARGE","OBJECT_NAME":"STARLINK-6090","LAUNCH_DATE":"2023-03-29","MEAN_MOTION_DOT":"-0.00001547","FILE":"3914061","DECAY_DATE":null,"GP_ID":"232286303","NORAD_CAT_ID":"56095","TIME_SYSTEM":"UTC","ARG_OF_PERICENTER":"265.9849","ECCENTRICITY":"0.00010970","SITE":"AFETR","RA_OF_ASC_NODE":"317.3442","INCLINATION":"43.0019","PERIAPSIS":"552.341","TLE_LINE1":"1 56095U 23046C   23141.84900264 -.00001547  00000-0 -94203-4 0  9995","MEAN_MOTION":"15.04481085","MEAN_ANOMALY":"94.0868","MEAN_ELEMENT_THEORY":"SGP4","REF_FRAME":"TEME","REV_AT_EPOCH":"819"},{"ELEMENT_SET_NO":"999","CENTER_NAME":"EARTH","EPHEMERIS_TYPE":"0","OBJECT_ID":"2023-046D","SEMIMAJOR_AXIS":"6931.339","TLE_LINE2":"2 56096  43.0001 316.8529 0001754 261.9337 156.6988 15.04447445  8748","COUNTRY_CODE":"US","BSTAR":"0.00420110000000","PERIOD":"95.716","CLASSIFICATION_TYPE":"U","OBJECT_TYPE":"PAYLOAD","APOAPSIS":"554.420","MEAN_MOTION_DDOT":"0.0000000000000","LAUNCH_DATE":"2023-03-29","EPOCH":"2023-05-21T22:00:00.999936","RCS_SIZE":"LARGE","OBJECT_NAME":"STARLINK-6089","FILE":"3913875","DECAY_DATE":null,"MEAN_MOTION_DOT":"0.00060021","TIME_SYSTEM":"UTC","ARG_OF_PERICENTER":"261.9337","GP_ID":"232257088","NORAD_CAT_ID":"56096","INCLINATION":"43.0001","PERIAPSIS":"551.989","ECCENTRICITY":"0.00017540","SITE":"AFETR","RA_OF_ASC_NODE":"316.8529","REF_FRAME":"TEME","REV_AT_EPOCH":"874","TLE_LINE1":"1 56096U 23046D   23141.91667824  .00060021  00000-0  42011-2 0  9994","MEAN_MOTION":"15.04447445","MEAN_ELEMENT_THEORY":"SGP4","MEAN_ANOMALY":"156.6988"},{"TLE_LINE2":"2 56097  43.0010 303.2720 0002149 278.3992  81.6632 15.71442780  8351","COUNTRY_CODE":"US","BSTAR":"0.00019992000000","EPHEMERIS_TYPE":"0","SEMIMAJOR_AXIS":"6732.910","OBJECT_ID":"2023-046E","ELEMENT_SET_NO":"999","CENTER_NAME":"EARTH","RCS_SIZE":"LARGE","EPOCH":"2023-05-21T20:16:30.726912","OBJECT_NAME":"STARLINK-6077","LAUNCH_DATE":"2023-03-29","CLASSIFICATION_TYPE":"U","PERIOD":"91.636","APOAPSIS":"356.222","MEAN_MOTION_DDOT":"0.0000000000000","OBJECT_TYPE":"PAYLOAD","GP_ID":"232287305","NORAD_CAT_ID":"56097","ARG_OF_PERICENTER":"278.3992","TIME_SYSTEM":"UTC","MEAN_MOTION_DOT":"0.00025943","FILE":"3914061","DECAY_DATE":null,"MEAN_MOTION":"15.71442780","TLE_LINE1":"1 56097U 23046E   23141.84480008  .00025943  00000-0  19992-3 0  9991","MEAN_ELEMENT_THEORY":"SGP4","MEAN_ANOMALY":"81.6632","REF_FRAME":"TEME","REV_AT_EPOCH":"835","ECCENTRICITY":"0.00021490","RA_OF_ASC_NODE":"303.2720","SITE":"AFETR","PERIAPSIS":"353.328","INCLINATION":"43.0010"},{"LAUNCH_DATE":"2023-03-29","OBJECT_NAME":"STARLINK-6088","EPOCH":"2023-05-21T21:53:29.115456","RCS_SIZE":"LARGE","OBJECT_TYPE":"PAYLOAD","APOAPSIS":"554.107","MEAN_MOTION_DDOT":"0.0000000000000","PERIOD":"95.715","CLASSIFICATION_TYPE":"U","BSTAR":"-0.00006132200000","TLE_LINE2":"2 56098  43.0015 316.9568 0001408 279.7431  80.3252 15.04471323  8207","COUNTRY_CODE":"US","CENTER_NAME":"EARTH","ELEMENT_SET_NO":"999","OBJECT_ID":"2023-046F","SEMIMAJOR_AXIS":"6931.266","EPHEMERIS_TYPE":"0","REV_AT_EPOCH":"820","REF_FRAME":"TEME","MEAN_ELEMENT_THEORY":"SGP4","MEAN_ANOMALY":"80.3252","TLE_LINE1":"1 56098U 23046F   23141.91214254 -.00001080  00000-0 -61322-4 0  9991","MEAN_MOTION":"15.04471323","INCLINATION":"43.0015","PERIAPSIS":"552.155","SITE":"AFETR","RA_OF_ASC_NODE":"316.9568","ECCENTRICITY":"0.00014080","ARG_OF_PERICENTER":"279.7431","TIME_SYSTEM":"UTC","NORAD_CAT_ID":"56098","GP_ID":"232285553","DECAY_DATE":null,"FILE":"3914061","MEAN_MOTION_DOT":"-0.00001080"},{"SITE":"AFETR","RA_OF_ASC_NODE":"316.7603","ECCENTRICITY":"0.00016520","INCLINATION":"42.9999","PERIAPSIS":"552.039","MEAN_ELEMENT_THEORY":"SGP4","MEAN_ANOMALY":"168.8969","TLE_LINE1":"1 56099U 23046G   23141.91667824  .00065570  00000-0  45837-2 0  9990","MEAN_MOTION":"15.04453911","REV_AT_EPOCH":"874","REF_FRAME":"TEME","MEAN_MOTION_DOT":"0.00065570","DECAY_DATE":null,"FILE":"3913875","NORAD_CAT_ID":"56099","GP_ID":"232257096","ARG_OF_PERICENTER":"288.8480","TIME_SYSTEM":"UTC","OBJECT_TYPE":"PAYLOAD","MEAN_MOTION_DDOT":"0.0000000000000","APOAPSIS":"554.330","PERIOD":"95.716","CLASSIFICATION_TYPE":"U","OBJECT_NAME":"STARLINK-6093","EPOCH":"2023-05-21T22:00:00.999936","RCS_SIZE":"LARGE","LAUNCH_DATE":"2023-03-29","OBJECT_ID":"2023-046G","SEMIMAJOR_AXIS":"6931.319","EPHEMERIS_TYPE":"0","CENTER_NAME":"EARTH","ELEMENT_SET_NO":"999","BSTAR":"0.00458370000000","COUNTRY_CODE":"US","TLE_LINE2":"2 56099  42.9999 316.7603 0001652 288.8480 168.8969 15.04453911  8740"},{"BSTAR":"0.00413720000000","COUNTRY_CODE":"US","TLE_LINE2":"2 56100  43.0001 316.7057 0001738 288.5587 191.0933 15.04457211  8748","CENTER_NAME":"EARTH","ELEMENT_SET_NO":"999","OBJECT_ID":"2023-046H","SEMIMAJOR_AXIS":"6931.309","EPHEMERIS_TYPE":"0","LAUNCH_DATE":"2023-03-29","OBJECT_NAME":"STARLINK-6076","EPOCH":"2023-05-21T22:00:00.999936","RCS_SIZE":"LARGE","OBJECT_TYPE":"PAYLOAD","APOAPSIS":"554.379","MEAN_MOTION_DDOT":"0.0000000000000","PERIOD":"95.716","CLASSIFICATION_TYPE":"U","TIME_SYSTEM":"UTC","ARG_OF_PERICENTER":"288.5587","NORAD_CAT_ID":"56100","GP_ID":"232256728","DECAY_DATE":null,"FILE":"3913875","MEAN_MOTION_DOT":"0.00059113","REV_AT_EPOCH":"874","REF_FRAME":"TEME","MEAN_ELEMENT_THEORY":"SGP4","MEAN_ANOMALY":"191.0933","TLE_LINE1":"1 56100U 23046H   23141.91667824  .00059113  00000-0  41372-2 0  9999","MEAN_MOTION":"15.04457211","INCLINATION":"43.0001","PERIAPSIS":"551.970","SITE":"AFETR","RA_OF_ASC_NODE":"316.7057","ECCENTRICITY":"0.00017380"},{"CLASSIFICATION_TYPE":"U","PERIOD":"95.716","APOAPSIS":"554.213","MEAN_MOTION_DDOT":"0.0000000000000","OBJECT_TYPE":"PAYLOAD","RCS_SIZE":"LARGE","EPOCH":"2023-05-21T22:00:00.999936","OBJECT_NAME":"STARLINK-6095","LAUNCH_DATE":"2023-03-29","EPHEMERIS_TYPE":"0","SEMIMAJOR_AXIS":"6931.343","OBJECT_ID":"2023-046J","ELEMENT_SET_NO":"999","CENTER_NAME":"EARTH","TLE_LINE2":"2 56101  42.9998 316.6629 0001451 263.5195 235.2658 15.04446398  8745","COUNTRY_CODE":"US","BSTAR":"0.00408950000000","ECCENTRICITY":"0.00014510","RA_OF_ASC_NODE":"316.6629","SITE":"AFETR","PERIAPSIS":"552.202","INCLINATION":"42.9998","MEAN_MOTION":"15.04446398","TLE_LINE1":"1 56101U 23046J   23141.91667824  .00058406  00000-0  40895-2 0  9993","MEAN_ELEMENT_THEORY":"SGP4","MEAN_ANOMALY":"235.2658","REF_FRAME":"TEME","REV_AT_EPOCH":"874","MEAN_MOTION_DOT":"0.00058406","FILE":"3913876","DECAY_DATE":null,"GP_ID":"232257109","NORAD_CAT_ID":"56101","ARG_OF_PERICENTER":"263.5195","TIME_SYSTEM":"UTC"},{"TLE_LINE2":"2 56102  43.0014 316.8837 0001110 280.8935  79.1783 15.04469781  8202","COUNTRY_CODE":"US","BSTAR":"-0.00010757000000","ELEMENT_SET_NO":"999","CENTER_NAME":"EARTH","EPHEMERIS_TYPE":"0","OBJECT_ID":"2023-046K","SEMIMAJOR_AXIS":"6931.271","LAUNCH_DATE":"2023-03-29","EPOCH":"2023-05-21T21:39:35.144640","RCS_SIZE":"LARGE","OBJECT_NAME":"STARLINK-6075","PERIOD":"95.715","CLASSIFICATION_TYPE":"U","OBJECT_TYPE":"PAYLOAD","APOAPSIS":"553.905","MEAN_MOTION_DDOT":"0.0000000000000","TIME_SYSTEM":"UTC","ARG_OF_PERICENTER":"280.8935","GP_ID":"232286054","NORAD_CAT_ID":"56102","FILE":"3914061","DECAY_DATE":null,"MEAN_MOTION_DOT":"-0.00001737","REF_FRAME":"TEME","REV_AT_EPOCH":"820","TLE_LINE1":"1 56102U 23046K   23141.90249010 -.00001737  00000-0 -10757-3 0  9998","MEAN_MOTION":"15.04469781","MEAN_ELEMENT_THEORY":"SGP4","MEAN_ANOMALY":"79.1783","INCLINATION":"43.0014","PERIAPSIS":"552.366","ECCENTRICITY":"0.00011100","SITE":"AFETR","RA_OF_ASC_NODE":"316.8837"}];
